[{"OBJECT_NAME":"CAS-2T & KS-1Q","OBJECT_ID":"2016-066G","EPOCH":"2026-03-09T16:58:07.740192","MEAN_MOTION":14.44469485,"ECCENTRICITY":0.03436678,"INCLINATION":98.388,"RA_OF_ASC_NODE":145.5568,"ARG_OF_PERICENTER":71.4405,"MEAN_ANOMALY":292.3791,"EPHEMERIS_TYPE":0,"CLASSIFICATION_TYPE":"U","NORAD_CAT_ID":41847,"ELEMENT_SET_NO":999,"REV_AT_EPOCH":49043,"BSTAR":0.00023398968,"MEAN_MOTION_DOT":1.617e-5,"MEAN_MOTION_DDOT":0},{"OBJECT_NAME":"CZ-4C DEB","OBJECT_ID":"2018-034L","EPOCH":"2026-03-08T13:37:22.361088","MEAN_MOTION":13.44324443,"ECCENTRICITY":0.02618759,"INCLINATION":63.4005,"RA_OF_ASC_NODE":7.3418,"ARG_OF_PERICENTER":6.7819,"MEAN_ANOMALY":353.6639,"EPHEMERIS_TYPE":0,"CLASSIFICATION_TYPE":"U","NORAD_CAT_ID":45483,"ELEMENT_SET_NO":999,"REV_AT_EPOCH":35098,"BSTAR":0.0002331183,"MEAN_MOTION_DOT":7.7e-7,"MEAN_MOTION_DDOT":0}]
